{
  "dealerships": [
    {
      "id": 1,
      "city": "Mumbai",
      "state": "Maharashtra",
      "st": "MH",
      "address": "101 Marine Drive",
      "zip": "400001",
      "lat": 18.9388,
      "long": 72.8354,
      "short_name": "AutoMum",
      "full_name": "AutoMum Car Dealership"
    },
    {
      "id": 2,
      "city": "Delhi",
      "state": "Delhi",
      "st": "DL",
      "address": "23 Connaught Place",
      "zip": "110001",
      "lat": 28.6315,
      "long": 77.2167,
      "short_name": "DriveDel",
      "full_name": "DriveDel Car Dealership"
    },
    {
      "id": 3,
      "city": "Bengaluru",
      "state": "Karnataka",
      "st": "KA",
      "address": "88 MG Road",
      "zip": "560001",
      "lat": 12.9752,
      "long": 77.605,
      "short_name": "SpeedBLR",
      "full_name": "SpeedBLR Car Dealership"
    },
    {
      "id": 4,
      "city": "Hyderabad",
      "state": "Telangana",
      "st": "TG",
      "address": "60 Banjara Hills",
      "zip": "500034",
      "lat": 17.421,
      "long": 78.4483,
      "short_name": "HyAuto",
      "full_name": "HyAuto Car Dealership"
    },
    {
      "id": 5,
      "city": "Ahmedabad",
      "state": "Gujarat",
      "st": "GJ",
      "address": "502 SG Highway",
      "zip": "380015",
      "lat": 23.0338,
      "long": 72.585,
      "short_name": "Amdrive",
      "full_name": "Amdrive Car Dealership"
    },
    {
      "id": 6,
      "city": "Pune",
      "state": "Maharashtra",
      "st": "MH",
      "address": "12 FC Road",
      "zip": "411004",
      "lat": 18.5204,
      "long": 73.8567,
      "short_name": "RidePune",
      "full_name": "RidePune Car Dealership"
    },
    {
      "id": 7,
      "city": "Chennai",
      "state": "Tamil Nadu",
      "st": "TN",
      "address": "89 T Nagar",
      "zip": "600017",
      "lat": 13.0405,
      "long": 80.2337,
      "short_name": "ChennaiCars",
      "full_name": "ChennaiCars Car Dealership"
    },
    {
      "id": 8,
      "city": "Kolkata",
      "state": "West Bengal",
      "st": "WB",
      "address": "300 Park Street",
      "zip": "700016",
      "lat": 22.5546,
      "long": 88.3522,
      "short_name": "KolkataAuto",
      "full_name": "KolkataAuto Car Dealership"
    },
    {
      "id": 9,
      "city": "Jaipur",
      "state": "Rajasthan",
      "st": "RJ",
      "address": "91 MI Road",
      "zip": "302001",
      "lat": 26.9124,
      "long": 75.7873,
      "short_name": "JaipurRide",
      "full_name": "JaipurRide Car Dealership"
    },
    {
      "id": 10,
      "city": "Lucknow",
      "state": "Uttar Pradesh",
      "st": "UP",
      "address": "55 Hazratganj",
      "zip": "226001",
      "lat": 26.8467,
      "long": 80.9462,
      "short_name": "LuckAuto",
      "full_name": "LuckAuto Car Dealership"
    },
    {
      "id": 11,
      "city": "Bhopal",
      "state": "Madhya Pradesh",
      "st": "MP",
      "address": "75 Arera Colony",
      "zip": "462016",
      "lat": 23.2599,
      "long": 77.4126,
      "short_name": "BhopalCarz",
      "full_name": "BhopalCarz Car Dealership"
    },
    {
      "id": 12,
      "city": "Nagpur",
      "state": "Maharashtra",
      "st": "MH",
      "address": "150 Sitabuldi",
      "zip": "440012",
      "lat": 21.1458,
      "long": 79.0882,
      "short_name": "NagpurZoom",
      "full_name": "NagpurZoom Car Dealership"
    },
    {
      "id": 13,
      "city": "Indore",
      "state": "Madhya Pradesh",
      "st": "MP",
      "address": "34 Palasia",
      "zip": "452001",
      "lat": 22.7196,
      "long": 75.8577,
      "short_name": "Indrive",
      "full_name": "Indrive Car Dealership"
    },
    {
      "id": 14,
      "city": "Surat",
      "state": "Gujarat",
      "st": "GJ",
      "address": "202 Dumas Road",
      "zip": "395007",
      "lat": 21.1702,
      "long": 72.8311,
      "short_name": "SuratAuto",
      "full_name": "SuratAuto Car Dealership"
    },
    {
      "id": 15,
      "city": "Patna",
      "state": "Bihar",
      "st": "BR",
      "address": "67 Boring Road",
      "zip": "800001",
      "lat": 25.5941,
      "long": 85.1376,
      "short_name": "PatnaMotors",
      "full_name": "PatnaMotors Car Dealership"
    },
    {
      "id": 16,
      "city": "Chandigarh",
      "state": "Chandigarh",
      "st": "CH",
      "address": "501 Sector 17",
      "zip": "160017",
      "lat": 30.7333,
      "long": 76.7794,
      "short_name": "CHDrives",
      "full_name": "CHDrives Car Dealership"
    },
    {
      "id": 17,
      "city": "Coimbatore",
      "state": "Tamil Nadu",
      "st": "TN",
      "address": "88 RS Puram",
      "zip": "641002",
      "lat": 11.0168,
      "long": 76.9558,
      "short_name": "CoimZoom",
      "full_name": "CoimZoom Car Dealership"
    },
    {
      "id": 18,
      "city": "Thiruvananthapuram",
      "state": "Kerala",
      "st": "KL",
      "address": "34 MG Road",
      "zip": "695001",
      "lat": 8.5241,
      "long": 76.9366,
      "short_name": "TvmRides",
      "full_name": "TvmRides Car Dealership"
    },
    {
      "id": 19,
      "city": "Vishakhapatnam",
      "state": "Andhra Pradesh",
      "st": "AP",
      "address": "12 Beach Road",
      "zip": "530001",
      "lat": 17.6868,
      "long": 83.2185,
      "short_name": "VizagAuto",
      "full_name": "VizagAuto Car Dealership"
    },
    {
      "id": 20,
      "city": "Kanpur",
      "state": "Uttar Pradesh",
      "st": "UP",
      "address": "76 Mall Road",
      "zip": "208001",
      "lat": 26.4499,
      "long": 80.3319,
      "short_name": "KanpurDrive",
      "full_name": "KanpurDrive Car Dealership"
    },
    {
      "id": 21,
      "city": "Varanasi",
      "state": "Uttar Pradesh",
      "st": "UP",
      "address": "11 Lanka Road",
      "zip": "221005",
      "lat": 25.3176,
      "long": 82.9739,
      "short_name": "VaranasiAuto",
      "full_name": "VaranasiAuto Car Dealership"
    },
    {
      "id": 22,
      "city": "Amritsar",
      "state": "Punjab",
      "st": "PB",
      "address": "33 Golden Temple Road",
      "zip": "143001",
      "lat": 31.634,
      "long": 74.8723,
      "short_name": "AmriDrive",
      "full_name": "AmriDrive Car Dealership"
    },
    {
      "id": 23,
      "city": "Ranchi",
      "state": "Jharkhand",
      "st": "JH",
      "address": "24 Harmu Road",
      "zip": "834002",
      "lat": 23.3441,
      "long": 85.3096,
      "short_name": "RanchiRide",
      "full_name": "RanchiRide Car Dealership"
    },
    {
      "id": 24,
      "city": "Guwahati",
      "state": "Assam",
      "st": "AS",
      "address": "150 GS Road",
      "zip": "781005",
      "lat": 26.1445,
      "long": 91.7362,
      "short_name": "AssamAuto",
      "full_name": "AssamAuto Car Dealership"
    },
    {
      "id": 25,
      "city": "Shimla",
      "state": "Himachal Pradesh",
      "st": "HP",
      "address": "17 Mall Road",
      "zip": "171001",
      "lat": 31.1048,
      "long": 77.1734,
      "short_name": "HPRides",
      "full_name": "HPRides Car Dealership"
    },
    {
      "id": 26,
      "city": "Jodhpur",
      "state": "Rajasthan",
      "st": "RJ",
      "address": "97 Sardarpura",
      "zip": "342003",
      "lat": 26.2389,
      "long": 73.0243,
      "short_name": "JodhAuto",
      "full_name": "JodhAuto Car Dealership"
    },
    {
      "id": 27,
      "city": "Mysuru",
      "state": "Karnataka",
      "st": "KA",
      "address": "42 KR Circle",
      "zip": "570001",
      "lat": 12.2958,
      "long": 76.6394,
      "short_name": "MysuruMotors",
      "full_name": "MysuruMotors Car Dealership"
    },
    {
      "id": 28,
      "city": "Madurai",
      "state": "Tamil Nadu",
      "st": "TN",
      "address": "55 Meenakshi Temple Road",
      "zip": "625001",
      "lat": 9.9252,
      "long": 78.1198,
      "short_name": "MaduraDrive",
      "full_name": "MaduraDrive Car Dealership"
    },
    {
      "id": 29,
      "city": "Nashik",
      "state": "Maharashtra",
      "st": "MH",
      "address": "44 College Road",
      "zip": "422005",
      "lat": 20.0059,
      "long": 73.791,
      "short_name": "NashAuto",
      "full_name": "NashAuto Car Dealership"
    },
    {
      "id": 30,
      "city": "Noida",
      "state": "Uttar Pradesh",
      "st": "UP",
      "address": "Sector 18 Market",
      "zip": "201301",
      "lat": 28.5355,
      "long": 77.391,
      "short_name": "NoidaZoom",
      "full_name": "NoidaZoom Car Dealership"
    },
    {
      "id": 31,
      "city": "Gwalior",
      "state": "Madhya Pradesh",
      "st": "MP",
      "address": "12 Maharani Laxmibai Road",
      "zip": "474001",
      "lat": 26.2183,
      "long": 78.1828,
      "short_name": "GwaliorCars",
      "full_name": "GwaliorCars Car Dealership"
    },
    {
      "id": 32,
      "city": "Jamshedpur",
      "state": "Jharkhand",
      "st": "JH",
      "address": "5 Bistupur Main Road",
      "zip": "831001",
      "lat": 22.8046,
      "long": 86.2029,
      "short_name": "TataMotors",
      "full_name": "TataMotors Car Dealership"
    },
    {
      "id": 33,
      "city": "Udaipur",
      "state": "Rajasthan",
      "st": "RJ",
      "address": "19 Fatehsagar Lake Road",
      "zip": "313001",
      "lat": 24.5854,
      "long": 73.7125,
      "short_name": "LakeDrive",
      "full_name": "LakeDrive Car Dealership"
    },
    {
      "id": 34,
      "city": "Thrissur",
      "state": "Kerala",
      "st": "KL",
      "address": "88 MG Road",
      "zip": "680001",
      "lat": 10.5276,
      "long": 76.2144,
      "short_name": "ThrissurAuto",
      "full_name": "ThrissurAuto Car Dealership"
    },
    {
      "id": 35,
      "city": "Panaji",
      "state": "Goa",
      "st": "GA",
      "address": "11 Campal Road",
      "zip": "403001",
      "lat": 15.4909,
      "long": 73.8278,
      "short_name": "GoaWheels",
      "full_name": "GoaWheels Car Dealership"
    },
    {
      "id": 36,
      "city": "Agra",
      "state": "Uttar Pradesh",
      "st": "UP",
      "address": "47 Fatehabad Road",
      "zip": "282001",
      "lat": 27.1767,
      "long": 78.0081,
      "short_name": "TajAuto",
      "full_name": "TajAuto Car Dealership"
    },
    {
      "id": 37,
      "city": "Rajkot",
      "state": "Gujarat",
      "st": "GJ",
      "address": "66 Kalawad Road",
      "zip": "360001",
      "lat": 22.3039,
      "long": 70.8022,
      "short_name": "RajDrive",
      "full_name": "RajDrive Car Dealership"
    },
    {
      "id": 38,
      "city": "Dehradun",
      "state": "Uttarakhand",
      "st": "UK",
      "address": "72 Rajpur Road",
      "zip": "248001",
      "lat": 30.3165,
      "long": 78.0322,
      "short_name": "DoonMotors",
      "full_name": "DoonMotors Car Dealership"
    },
    {
      "id": 39,
      "city": "Raipur",
      "state": "Chhattisgarh",
      "st": "CG",
      "address": "10 Pandri Market",
      "zip": "492001",
      "lat": 21.2514,
      "long": 81.6296,
      "short_name": "CGAuto",
      "full_name": "CGAuto Car Dealership"
    },
    {
      "id": 40,
      "city": "Guntur",
      "state": "Andhra Pradesh",
      "st": "AP",
      "address": "19 Arundelpet Road",
      "zip": "522002",
      "lat": 16.3067,
      "long": 80.4365,
      "short_name": "GunturDrive",
      "full_name": "GunturDrive Car Dealership"
    },
    {
      "id": 41,
      "city": "Ghaziabad",
      "state": "Uttar Pradesh",
      "st": "UP",
      "address": "154 Ghaziabad Road",
      "zip": "201001",
      "lat": 28.6692,
      "long": 77.4538,
      "short_name": "UPDrive",
      "full_name": "UPDrive Car Dealership"
    },
    {
      "id": 42,
      "city": "Jalandhar",
      "state": "Punjab",
      "st": "PB",
      "address": "48 GT Road",
      "zip": "144001",
      "lat": 31.326,
      "long": 75.5762,
      "short_name": "JalandharAuto",
      "full_name": "JalandharAuto Car Dealership"
    },
    {
      "id": 43,
      "city": "Durgapur",
      "state": "West Bengal",
      "st": "WB",
      "address": "65 City Center",
      "zip": "713216",
      "lat": 23.5204,
      "long": 87.3119,
      "short_name": "DurgaMotors",
      "full_name": "DurgaMotors Car Dealership"
    },
    {
      "id": 44,
      "city": "Patna",
      "state": "Bihar",
      "st": "BR",
      "address": "89 Fraser Road",
      "zip": "800001",
      "lat": 25.5941,
      "long": 85.1376,
      "short_name": "PatnaDrive",
      "full_name": "PatnaDrive Car Dealership"
    },
    {
      "id": 45,
      "city": "Jammu",
      "state": "Jammu and Kashmir",
      "st": "JK",
      "address": "12 Tawi Bridge Road",
      "zip": "180001",
      "lat": 32.7266,
      "long": 74.857,
      "short_name": "JammuAuto",
      "full_name": "JammuAuto Car Dealership"
    },
    {
      "id": 46,
      "city": "Tiruchirappalli",
      "state": "Tamil Nadu",
      "st": "TN",
      "address": "21 Rockfort Road",
      "zip": "620001",
      "lat": 10.7905,
      "long": 78.7047,
      "short_name": "TrichyMotors",
      "full_name": "TrichyMotors Car Dealership"
    },
    {
      "id": 47,
      "city": "Bhubaneswar",
      "state": "Odisha",
      "st": "OD",
      "address": "29 Janpath",
      "zip": "751001",
      "lat": 20.2961,
      "long": 85.8245,
      "short_name": "OdishaRide",
      "full_name": "OdishaRide Car Dealership"
    },
    {
      "id": 48,
      "city": "Imphal",
      "state": "Manipur",
      "st": "MN",
      "address": "77 BT Road",
      "zip": "795001",
      "lat": 24.817,
      "long": 93.9368,
      "short_name": "ImphalAuto",
      "full_name": "ImphalAuto Car Dealership"
    },
    {
      "id": 49,
      "city": "Kohima",
      "state": "Nagaland",
      "st": "NL",
      "address": "33 PR Hill",
      "zip": "797001",
      "lat": 25.6747,
      "long": 94.1109,
      "short_name": "NagaDrive",
      "full_name": "NagaDrive Car Dealership"
    },
    {
      "id": 50,
      "city": "Itanagar",
      "state": "Arunachal Pradesh",
      "st": "AR",
      "address": "18 Ganga Market Road",
      "zip": "791111",
      "lat": 27.0844,
      "long": 93.6053,
      "short_name": "ItanAuto",
      "full_name": "ItanAuto Car Dealership"
    }
  ]
}